ONEWEB-0340             
1 49206U 21083W   25217.48788410  .00000018  00000+0  13503-4 0  9996
2 49206  87.9126  38.1576 0001816  92.8125 267.3215 13.18685978188367
ONEWEB-0341             
1 49207U 21083X   25217.49446156  .00000045  00000+0  80623-4 0  9993
2 49207  87.9131  38.1676 0001231  87.0406 273.0867 13.18684868188380
ONEWEB-0342             
1 49208U 21083Y   25217.59657114  .00000077  00000+0  15755-3 0  9991
2 49208  87.9284 337.3175 0001924  94.9858 265.1495 13.20773072195123
ONEWEB-0343             
1 49209U 21083Z   25217.49034516  .00000027  00000+0  36851-4 0  9992
2 49209  87.9129  38.1549 0001397  73.5832 286.5454 13.18688486188431
ONEWEB-0344             
1 49210U 21083AA  25217.51607726  .00000164  00000+0  41301-3 0  9993
2 49210  87.8970  22.9878 0001374  94.8276 265.3010 13.13470454189450
ONEWEB-0345             
1 49211U 21083AB  25217.50761733  .00000015  00000+0  48576-5 0  9990
2 49211  87.8971  22.9413 0001311  95.8128 264.3151 13.13469387189464
ONEWEB-0346             
1 49212U 21083AC  25217.49942099  .00000076  00000+0  16037-3 0  9997
2 49212  87.9130  38.1752 0002033 107.8840 252.2514 13.18686778188373
ONEWEB-0348             
1 49213U 21083AD  25217.58709711  .00003890  00000+0  95329-2 0  9997
2 49213  87.9292 337.3306 0001778 120.8100 239.3209 13.20755634195153
